[{"OBJECT_NAME":"BUFENG 1B","OBJECT_ID":"2019-032B","EPOCH":"2026-03-09T19:57:27.457920","MEAN_MOTION":15.25619535,"ECCENTRICITY":0.00242037,"INCLINATION":44.9701,"RA_OF_ASC_NODE":192.0248,"ARG_OF_PERICENTER":123.8847,"MEAN_ANOMALY":236.4342,"EPHEMERIS_TYPE":0,"CLASSIFICATION_TYPE":"U","NORAD_CAT_ID":44311,"ELEMENT_SET_NO":999,"REV_AT_EPOCH":37256,"BSTAR":0.00059375374,"MEAN_MOTION_DOT":0.00015236,"MEAN_MOTION_DDOT":0},{"OBJECT_NAME":"OBJECT C","OBJECT_ID":"2024-016C","EPOCH":"2026-03-09T22:43:52.910688","MEAN_MOTION":15.23604434,"ECCENTRICITY":0.0010855,"INCLINATION":97.441,"RA_OF_ASC_NODE":150.2614,"ARG_OF_PERICENTER":179.1446,"MEAN_ANOMALY":180.9812,"EPHEMERIS_TYPE":0,"CLASSIFICATION_TYPE":"U","NORAD_CAT_ID":58822,"ELEMENT_SET_NO":999,"REV_AT_EPOCH":11801,"BSTAR":0.0004308258,"MEAN_MOTION_DOT":0.00010264,"MEAN_MOTION_DDOT":0}]
